TEVEL2-3                
1 63218U 25052J   26063.21792687  .00029996  00000+0  10287-2 0  9997
2 63218  97.4011 319.3700 0004472 117.1405 243.0293 15.30112848 54020
TEVEL2-2                
1 63219U 25052K   26063.22089081  .00030206  00000+0  10369-2 0  9993
2 63219  97.4010 319.3625 0004415 117.3340 242.8350 15.30081072 54028
TEVEL2-9                
1 63237U 25052AD  26063.13772533  .00026757  00000+0  96780-3 0  9992
2 63237  97.4070 318.8588 0007539 140.8467 219.3319 15.28379573 53966
TEVEL2-7                
1 63238U 25052AE  26063.22673460  .00027466  00000+0  99947-3 0  9998
2 63238  97.4074 318.9016 0007702 140.3363 219.8441 15.28174555 53975
TEVEL2-8                
1 63239U 25052AF  26063.23367777  .00027638  00000+0  10064-2 0  9994
2 63239  97.4070 318.8892 0007607 140.5842 219.5953 15.28151948 53977
HADES-ICM               
1 63492U 25052BN  26063.68172433  .00161747  00000+0  23438-2 0  9996
2 63492  97.3953 323.9519 0008515 120.9814 239.2278 15.55263348 54361
INNOSAT 16 (RS92S7)     
1 64878U 25155C   26063.85829573  .00010695  00000+0  44246-3 0  9998
2 64878  97.4459  31.4891 0010396 182.2179 177.9014 15.24088940 64772
GEOSCAN 6 (RS92S6)      
1 64879U 25155D   26063.86873478  .00017434  00000+0  64300-3 0  9994
2 64879  97.4457  32.2557 0008029 170.0334 190.1066 15.27823955 64823
GEOSCAN 1 (RS92S1)      
1 64880U 25155E   26063.84036701  .00018425  00000+0  67088-3 0  9991
2 64880  97.4457  32.2981 0007978 169.9587 190.1814 15.28235969 64829
239ALFEROV (RS61S)      
1 64881U 25155F   26063.80540339  .00023139  00000+0  80435-3 0  9994
2 64881  97.4461  32.5257 0007630 167.7145 192.4282 15.29709743 64837
GEOSCAN 2 (RS92S2)      
1 64890U 25155Q   26063.85367468  .00018404  00000+0  66403-3 0  9997
2 64890  97.4455  32.4201 0007847 156.3031 203.8572 15.28537482 64833
GEOSCAN 5 (RS92S5)      
1 64891U 25155R   26063.81662570  .00021917  00000+0  75460-3 0  9992
2 64891  97.4454  32.6331 0006297 170.3730 189.7632 15.30042377 64846
GEOSCAN 4 (RS92S4)      
1 64892U 25155S   26063.80933686  .00022834  00000+0  78348-3 0  9998
2 64892  97.4457  32.6493 0006261 170.9318 189.2037 15.30145279 64847
GEOSCAN 3 (RS92S3)      
1 64893U 25155T   26063.85677050  .00027068  00000+0  89178-3 0  9991
2 64893  97.4450  32.8785 0005879 169.8425 190.2936 15.31428889 64861
INNOSAT 3 (RS92S0)      
1 64894U 25155U   26063.84001110  .00046919  00000+0  13232-2 0  9992
2 64894  97.4421  33.4763 0005540 159.6515 200.4950 15.36247460 64909
