[{"OBJECT_NAME":"TEVEL2-3","OBJECT_ID":"2025-052J","EPOCH":"2026-03-04T05:13:48.881568","MEAN_MOTION":15.30112848,"ECCENTRICITY":0.00044727,"INCLINATION":97.4011,"RA_OF_ASC_NODE":319.37,"ARG_OF_PERICENTER":117.1405,"MEAN_ANOMALY":243.0293,"EPHEMERIS_TYPE":0,"CLASSIFICATION_TYPE":"U","NORAD_CAT_ID":63218,"ELEMENT_SET_NO":999,"REV_AT_EPOCH":5402,"BSTAR":0.0010287423,"MEAN_MOTION_DOT":0.00029996,"MEAN_MOTION_DDOT":0},{"OBJECT_NAME":"TEVEL2-2","OBJECT_ID":"2025-052K","EPOCH":"2026-03-04T05:18:04.965984","MEAN_MOTION":15.30081072,"ECCENTRICITY":0.00044151,"INCLINATION":97.401,"RA_OF_ASC_NODE":319.3625,"ARG_OF_PERICENTER":117.334,"MEAN_ANOMALY":242.835,"EPHEMERIS_TYPE":0,"CLASSIFICATION_TYPE":"U","NORAD_CAT_ID":63219,"ELEMENT_SET_NO":999,"REV_AT_EPOCH":5402,"BSTAR":0.0010369188,"MEAN_MOTION_DOT":0.00030206,"MEAN_MOTION_DDOT":0},{"OBJECT_NAME":"TEVEL2-9","OBJECT_ID":"2025-052AD","EPOCH":"2026-03-04T03:18:19.468512","MEAN_MOTION":15.28379573,"ECCENTRICITY":0.00075396,"INCLINATION":97.407,"RA_OF_ASC_NODE":318.8588,"ARG_OF_PERICENTER":140.8467,"MEAN_ANOMALY":219.3319,"EPHEMERIS_TYPE":0,"CLASSIFICATION_TYPE":"U","NORAD_CAT_ID":63237,"ELEMENT_SET_NO":999,"REV_AT_EPOCH":5396,"BSTAR":0.00096779621,"MEAN_MOTION_DOT":0.00026757,"MEAN_MOTION_DDOT":0},{"OBJECT_NAME":"TEVEL2-7","OBJECT_ID":"2025-052AE","EPOCH":"2026-03-04T05:26:29.869440","MEAN_MOTION":15.28174555,"ECCENTRICITY":0.00077027,"INCLINATION":97.4074,"RA_OF_ASC_NODE":318.9016,"ARG_OF_PERICENTER":140.3363,"MEAN_ANOMALY":219.8441,"EPHEMERIS_TYPE":0,"CLASSIFICATION_TYPE":"U","NORAD_CAT_ID":63238,"ELEMENT_SET_NO":999,"REV_AT_EPOCH":5397,"BSTAR":0.00099947126,"MEAN_MOTION_DOT":0.00027466,"MEAN_MOTION_DDOT":0},{"OBJECT_NAME":"TEVEL2-8","OBJECT_ID":"2025-052AF","EPOCH":"2026-03-04T05:36:29.759328","MEAN_MOTION":15.28151948,"ECCENTRICITY":0.00076074,"INCLINATION":97.407,"RA_OF_ASC_NODE":318.8892,"ARG_OF_PERICENTER":140.5842,"MEAN_ANOMALY":219.5953,"EPHEMERIS_TYPE":0,"CLASSIFICATION_TYPE":"U","NORAD_CAT_ID":63239,"ELEMENT_SET_NO":999,"REV_AT_EPOCH":5397,"BSTAR":0.0010063928,"MEAN_MOTION_DOT":0.00027638,"MEAN_MOTION_DDOT":0},{"OBJECT_NAME":"HADES-ICM","OBJECT_ID":"2025-052BN","EPOCH":"2026-03-04T16:21:40.982112","MEAN_MOTION":15.55263348,"ECCENTRICITY":0.0008515,"INCLINATION":97.3953,"RA_OF_ASC_NODE":323.9519,"ARG_OF_PERICENTER":120.9814,"MEAN_ANOMALY":239.2278,"EPHEMERIS_TYPE":0,"CLASSIFICATION_TYPE":"U","NORAD_CAT_ID":63492,"ELEMENT_SET_NO":999,"REV_AT_EPOCH":5436,"BSTAR":0.0023438,"MEAN_MOTION_DOT":0.00161747,"MEAN_MOTION_DDOT":0},{"OBJECT_NAME":"INNOSAT 16 (RS92S7)","OBJECT_ID":"2025-155C","EPOCH":"2026-03-04T20:35:56.751072","MEAN_MOTION":15.2408894,"ECCENTRICITY":0.0010396,"INCLINATION":97.4459,"RA_OF_ASC_NODE":31.4891,"ARG_OF_PERICENTER":182.2179,"MEAN_ANOMALY":177.9014,"EPHEMERIS_TYPE":0,"CLASSIFICATION_TYPE":"U","NORAD_CAT_ID":64878,"ELEMENT_SET_NO":999,"REV_AT_EPOCH":6477,"BSTAR":0.00044246,"MEAN_MOTION_DOT":0.00010695,"MEAN_MOTION_DDOT":0},{"OBJECT_NAME":"GEOSCAN 6 (RS92S6)","OBJECT_ID":"2025-155D","EPOCH":"2026-03-04T20:50:58.684992","MEAN_MOTION":15.27823955,"ECCENTRICITY":0.0008029,"INCLINATION":97.4457,"RA_OF_ASC_NODE":32.2557,"ARG_OF_PERICENTER":170.0334,"MEAN_ANOMALY":190.1066,"EPHEMERIS_TYPE":0,"CLASSIFICATION_TYPE":"U","NORAD_CAT_ID":64879,"ELEMENT_SET_NO":999,"REV_AT_EPOCH":6482,"BSTAR":0.000643,"MEAN_MOTION_DOT":0.00017434,"MEAN_MOTION_DDOT":0},{"OBJECT_NAME":"GEOSCAN 1 (RS92S1)","OBJECT_ID":"2025-155E","EPOCH":"2026-03-04T20:10:07.709664","MEAN_MOTION":15.28235969,"ECCENTRICITY":0.0007978,"INCLINATION":97.4457,"RA_OF_ASC_NODE":32.2981,"ARG_OF_PERICENTER":169.9587,"MEAN_ANOMALY":190.1814,"EPHEMERIS_TYPE":0,"CLASSIFICATION_TYPE":"U","NORAD_CAT_ID":64880,"ELEMENT_SET_NO":999,"REV_AT_EPOCH":6482,"BSTAR":0.00067088,"MEAN_MOTION_DOT":0.00018425,"MEAN_MOTION_DDOT":0},{"OBJECT_NAME":"239ALFEROV (RS61S)","OBJECT_ID":"2025-155F","EPOCH":"2026-03-04T19:19:46.852896","MEAN_MOTION":15.29709743,"ECCENTRICITY":0.000763,"INCLINATION":97.4461,"RA_OF_ASC_NODE":32.5257,"ARG_OF_PERICENTER":167.7145,"MEAN_ANOMALY":192.4282,"EPHEMERIS_TYPE":0,"CLASSIFICATION_TYPE":"U","NORAD_CAT_ID":64881,"ELEMENT_SET_NO":999,"REV_AT_EPOCH":6483,"BSTAR":0.00080435,"MEAN_MOTION_DOT":0.00023139,"MEAN_MOTION_DDOT":0},{"OBJECT_NAME":"GEOSCAN 2 (RS92S2)","OBJECT_ID":"2025-155Q","EPOCH":"2026-03-04T20:29:17.492352","MEAN_MOTION":15.28537482,"ECCENTRICITY":0.0007847,"INCLINATION":97.4455,"RA_OF_ASC_NODE":32.4201,"ARG_OF_PERICENTER":156.3031,"MEAN_ANOMALY":203.8572,"EPHEMERIS_TYPE":0,"CLASSIFICATION_TYPE":"U","NORAD_CAT_ID":64890,"ELEMENT_SET_NO":999,"REV_AT_EPOCH":6483,"BSTAR":0.00066403,"MEAN_MOTION_DOT":0.00018404,"MEAN_MOTION_DDOT":0},{"OBJECT_NAME":"GEOSCAN 5 (RS92S5)","OBJECT_ID":"2025-155R","EPOCH":"2026-03-04T19:35:56.460480","MEAN_MOTION":15.30042377,"ECCENTRICITY":0.0006297,"INCLINATION":97.4454,"RA_OF_ASC_NODE":32.6331,"ARG_OF_PERICENTER":170.373,"MEAN_ANOMALY":189.7632,"EPHEMERIS_TYPE":0,"CLASSIFICATION_TYPE":"U","NORAD_CAT_ID":64891,"ELEMENT_SET_NO":999,"REV_AT_EPOCH":6484,"BSTAR":0.0007546,"MEAN_MOTION_DOT":0.00021917,"MEAN_MOTION_DDOT":0},{"OBJECT_NAME":"GEOSCAN 4 (RS92S4)","OBJECT_ID":"2025-155S","EPOCH":"2026-03-04T19:25:26.704704","MEAN_MOTION":15.30145279,"ECCENTRICITY":0.0006261,"INCLINATION":97.4457,"RA_OF_ASC_NODE":32.6493,"ARG_OF_PERICENTER":170.9318,"MEAN_ANOMALY":189.2037,"EPHEMERIS_TYPE":0,"CLASSIFICATION_TYPE":"U","NORAD_CAT_ID":64892,"ELEMENT_SET_NO":999,"REV_AT_EPOCH":6484,"BSTAR":0.00078348,"MEAN_MOTION_DOT":0.00022834,"MEAN_MOTION_DDOT":0},{"OBJECT_NAME":"GEOSCAN 3 (RS92S3)","OBJECT_ID":"2025-155T","EPOCH":"2026-03-04T20:33:44.971200","MEAN_MOTION":15.31428889,"ECCENTRICITY":0.0005879,"INCLINATION":97.445,"RA_OF_ASC_NODE":32.8785,"ARG_OF_PERICENTER":169.8425,"MEAN_ANOMALY":190.2936,"EPHEMERIS_TYPE":0,"CLASSIFICATION_TYPE":"U","NORAD_CAT_ID":64893,"ELEMENT_SET_NO":999,"REV_AT_EPOCH":6486,"BSTAR":0.00089178,"MEAN_MOTION_DOT":0.00027068,"MEAN_MOTION_DDOT":0},{"OBJECT_NAME":"INNOSAT 3 (RS92S0)","OBJECT_ID":"2025-155U","EPOCH":"2026-03-04T20:09:36.959040","MEAN_MOTION":15.3624746,"ECCENTRICITY":0.000554,"INCLINATION":97.4421,"RA_OF_ASC_NODE":33.4763,"ARG_OF_PERICENTER":159.6515,"MEAN_ANOMALY":200.495,"EPHEMERIS_TYPE":0,"CLASSIFICATION_TYPE":"U","NORAD_CAT_ID":64894,"ELEMENT_SET_NO":999,"REV_AT_EPOCH":6490,"BSTAR":0.0013232,"MEAN_MOTION_DOT":0.00046919,"MEAN_MOTION_DDOT":0}]
